BEESAT-1                
1 35933U 09051C   24366.62807071  .00004037  00000+0  85010-3 0  9990
2 35933  98.4407 254.4097 0006696  80.7718 279.4238 14.60045994811429
FUNCUBE-1 (AO-73)       
1 39444U 13066AE  24366.61945783  .00016918  00000+0  14080-2 0  9993
2 39444  97.7440 322.8371 0042431 200.3011 159.6526 14.98031380599604
MONITOR-4 (RS57S)       
1 57182U 23091S   24366.92160010  .00020445  00000+0  11063-2 0  9995
2 57182  97.5865  58.0374 0016219 154.0926 206.1121 15.14565820 83368
BRITE-CA1 (TORONTO)     
1 40020U 14033L   24366.81738212  .00005121  00000+0  80422-3 0  9997
2 40020  97.9021 137.5091 0081266 179.8689 180.2553 14.70809683563906
QB50P2                  
1 40032U 14033Y   24366.83455882  .00018397  00000+0  13245-2 0  9998
2 40032  98.0264 325.4761 0009018 168.2118 191.9320 15.04226241572324
CANX-4                  
1 40055U 14034C   24366.64405022  .00004647  00000+0  62925-3 0  9997
2 40055  98.3760 209.6642 0012028 281.8535  78.1326 14.79437493565737
AEROCUBE 5C             
1 40965U 15058B   24366.87474220  .00013896  00000+0  11644-2 0  9992
2 40965  64.7696 113.2492 0184947 249.2149 108.9062 14.86257925286382
PROPCUBE 3              
1 40973U 15058K   24366.81524759  .00016103  00000+0  13049-2 0  9993
2 40973  64.7709 109.3389 0179738 247.7802 110.4157 14.88021740 35390
SNAP-3 JIMI             
1 40975U 15058M   24366.86240945  .00023812  00000+0  17478-2 0  9997
2 40975  64.7690  93.5714 0167748 246.9146 111.4209 14.92817304 34478
PROMETHEUS 2-1          
1 41854U 16067G   25001.01680203  .00063644  00000+0  20683-2 0  9993
2 41854  98.0906 197.7067 0009739  89.4729 270.7626 15.31633024445854
SPACEBEE-7              
1 43816U 18099BL  24366.44419382  .00039658  00000+0  16453-2 0  9996
2 43816  97.5222  68.9892 0007126 329.6493  30.4330 15.23725504332314
M2 PATHFINDER           
1 45727U 20037E   24366.44010124  .00009096  00000+0  73378-3 0  9998
2 45727  97.7772 182.3437 0011662 161.3691 198.7961 15.00051406245483
SITRO-AIS 9 (SHCHUKIN)  
1 57201U 23091AM  24366.95560584  .00028911  00000+0  14107-2 0  9998
2 57201  97.5856  59.7611 0011379 143.4400 216.7613 15.18193701 83488
SITRO-AIS 11 (SHEFFER)  
1 57208U 23091AU  24366.92903499  .00027774  00000+0  13426-2 0  9997
2 57208  97.5860  60.0001 0011208 138.4693 221.7394 15.18529760 83498
SITRO-AIS 36            
1 59059U 24039J   25001.17786991  .00108797  00000+0  19045-2 0  9994
2 59059  97.4101 330.5887 0007687 208.2570 151.8266 15.50191520 47018
GLOBALSTAR M065         
1 31571U 07020A   24366.81922606  .00000034  00000+0  77153-3 0  9993
2 31571  51.9912  15.6782 0010043 295.4642 234.6281 12.61990532812279
GLOBALSTAR M066         
1 32265U 07048C   24366.92469450 -.00000114  00000+0 -11996-3 0  9993
2 32265  51.9650 151.8543 0001601 102.6619  75.2590 12.42169005794598
ORBCOMM FM116           
1 41189U 15081L   24366.91177359  .00003663  00000+0  83141-3 0  9998
2 41189  47.0008 265.3173 0002062 351.9897   8.0955 14.57677067481249
